[{"OBJECT_NAME":"LEMUR-2-KREMPEL-BRO1","OBJECT_ID":"2025-061G","EPOCH":"2026-04-05T10:26:35.161152","MEAN_MOTION":15.14045253,"ECCENTRICITY":0.0020209,"INCLINATION":97.5568,"RA_OF_ASC_NODE":71.8199,"ARG_OF_PERICENTER":136.1351,"MEAN_ANOMALY":224.1489,"EPHEMERIS_TYPE":0,"CLASSIFICATION_TYPE":"U","NORAD_CAT_ID":63357,"ELEMENT_SET_NO":999,"REV_AT_EPOCH":5662,"BSTAR":0.00029239,"MEAN_MOTION_DOT":5.274e-5,"MEAN_MOTION_DDOT":0},{"OBJECT_NAME":"LEMUR-2-LANGER2SPACE","OBJECT_ID":"2025-061H","EPOCH":"2026-04-05T10:43:51.499776","MEAN_MOTION":15.137422,"ECCENTRICITY":0.0017988,"INCLINATION":97.5575,"RA_OF_ASC_NODE":71.675,"ARG_OF_PERICENTER":143.8099,"MEAN_ANOMALY":216.4353,"EPHEMERIS_TYPE":0,"CLASSIFICATION_TYPE":"U","NORAD_CAT_ID":63358,"ELEMENT_SET_NO":999,"REV_AT_EPOCH":5661,"BSTAR":0.00028884378,"MEAN_MOTION_DOT":5.159e-5,"MEAN_MOTION_DDOT":0},{"OBJECT_NAME":"LEMUR-2-BALTO","OBJECT_ID":"2025-052BH","EPOCH":"2026-04-05T12:39:09.101088","MEAN_MOTION":14.99368946,"ECCENTRICITY":7.139e-5,"INCLINATION":97.6984,"RA_OF_ASC_NODE":350.0192,"ARG_OF_PERICENTER":90.9094,"MEAN_ANOMALY":269.2211,"EPHEMERIS_TYPE":0,"CLASSIFICATION_TYPE":"U","NORAD_CAT_ID":63395,"ELEMENT_SET_NO":999,"REV_AT_EPOCH":5787,"BSTAR":0.00071809724,"MEAN_MOTION_DOT":8.732e-5,"MEAN_MOTION_DDOT":0},{"OBJECT_NAME":"LEMUR-2-KRISH","OBJECT_ID":"2025-135AK","EPOCH":"2026-04-05T13:30:18.997632","MEAN_MOTION":14.95531958,"ECCENTRICITY":0.00011361,"INCLINATION":97.7651,"RA_OF_ASC_NODE":211.0208,"ARG_OF_PERICENTER":95.7978,"MEAN_ANOMALY":264.3373,"EPHEMERIS_TYPE":0,"CLASSIFICATION_TYPE":"U","NORAD_CAT_ID":64561,"ELEMENT_SET_NO":999,"REV_AT_EPOCH":4306,"BSTAR":0.00066821085,"MEAN_MOTION_DOT":7.352e-5,"MEAN_MOTION_DDOT":0},{"OBJECT_NAME":"LEMUR-2-HUBBLE-4","OBJECT_ID":"2025-135AP","EPOCH":"2026-04-05T13:30:34.220448","MEAN_MOTION":14.92997724,"ECCENTRICITY":0.00032709,"INCLINATION":97.7602,"RA_OF_ASC_NODE":210.3886,"ARG_OF_PERICENTER":146.9749,"MEAN_ANOMALY":213.1676,"EPHEMERIS_TYPE":0,"CLASSIFICATION_TYPE":"U","NORAD_CAT_ID":64565,"ELEMENT_SET_NO":999,"REV_AT_EPOCH":4303,"BSTAR":0.00024628723,"MEAN_MOTION_DOT":2.504e-5,"MEAN_MOTION_DDOT":0},{"OBJECT_NAME":"LEMUR-2-SEJONG-2","OBJECT_ID":"2025-135BL","EPOCH":"2026-04-05T13:13:40.638720","MEAN_MOTION":14.9608117,"ECCENTRICITY":0.00041768,"INCLINATION":97.7599,"RA_OF_ASC_NODE":211.1458,"ARG_OF_PERICENTER":190.4673,"MEAN_ANOMALY":169.6461,"EPHEMERIS_TYPE":0,"CLASSIFICATION_TYPE":"U","NORAD_CAT_ID":64586,"ELEMENT_SET_NO":999,"REV_AT_EPOCH":4308,"BSTAR":0.00049012303,"MEAN_MOTION_DOT":5.453e-5,"MEAN_MOTION_DDOT":0},{"OBJECT_NAME":"LEMUR-2-HUBBLE-5","OBJECT_ID":"2025-135BT","EPOCH":"2026-04-05T06:55:48.233280","MEAN_MOTION":14.93914289,"ECCENTRICITY":0.0004894,"INCLINATION":97.7624,"RA_OF_ASC_NODE":210.6438,"ARG_OF_PERICENTER":207.2871,"MEAN_ANOMALY":152.8092,"EPHEMERIS_TYPE":0,"CLASSIFICATION_TYPE":"U","NORAD_CAT_ID":64840,"ELEMENT_SET_NO":999,"REV_AT_EPOCH":4302,"BSTAR":0.00028861,"MEAN_MOTION_DOT":3.014e-5,"MEAN_MOTION_DDOT":0},{"OBJECT_NAME":"LEMUR-2-KARENDARRELL","OBJECT_ID":"2025-135BU","EPOCH":"2026-04-05T14:04:44.617728","MEAN_MOTION":14.99071342,"ECCENTRICITY":0.00087116,"INCLINATION":97.7608,"RA_OF_ASC_NODE":211.9859,"ARG_OF_PERICENTER":111.5551,"MEAN_ANOMALY":248.6601,"EPHEMERIS_TYPE":0,"CLASSIFICATION_TYPE":"U","NORAD_CAT_ID":64841,"ELEMENT_SET_NO":999,"REV_AT_EPOCH":4313,"BSTAR":0.0010540954,"MEAN_MOTION_DOT":0.00012762,"MEAN_MOTION_DDOT":0},{"OBJECT_NAME":"LEMUR-2-LUCILLE-ROSE","OBJECT_ID":"2025-135BV","EPOCH":"2026-04-05T07:04:27.232896","MEAN_MOTION":14.9910845,"ECCENTRICITY":0.0010251,"INCLINATION":97.7645,"RA_OF_ASC_NODE":211.6803,"ARG_OF_PERICENTER":155.5548,"MEAN_ANOMALY":204.6162,"EPHEMERIS_TYPE":0,"CLASSIFICATION_TYPE":"U","NORAD_CAT_ID":65403,"ELEMENT_SET_NO":999,"REV_AT_EPOCH":3771,"BSTAR":0.0009658,"MEAN_MOTION_DOT":0.00011701,"MEAN_MOTION_DDOT":0},{"OBJECT_NAME":"LEMUR-2-AFFIE-WAUWIE","OBJECT_ID":"2025-248C","EPOCH":"2026-04-05T04:37:32.836224","MEAN_MOTION":15.24807376,"ECCENTRICITY":0.00078929,"INCLINATION":45.4002,"RA_OF_ASC_NODE":149.7215,"ARG_OF_PERICENTER":17.4572,"MEAN_ANOMALY":342.6587,"EPHEMERIS_TYPE":0,"CLASSIFICATION_TYPE":"U","NORAD_CAT_ID":66295,"ELEMENT_SET_NO":999,"REV_AT_EPOCH":2344,"BSTAR":0.00091811398,"MEAN_MOTION_DOT":0.0002299,"MEAN_MOTION_DDOT":0},{"OBJECT_NAME":"LEMUR-2-DEANANDMAEVE","OBJECT_ID":"2025-276N","EPOCH":"2026-04-05T03:22:02.294976","MEAN_MOTION":15.18819782,"ECCENTRICITY":0.00045472,"INCLINATION":97.4245,"RA_OF_ASC_NODE":169.8682,"ARG_OF_PERICENTER":246.7754,"MEAN_ANOMALY":113.3002,"EPHEMERIS_TYPE":0,"CLASSIFICATION_TYPE":"U","NORAD_CAT_ID":66678,"ELEMENT_SET_NO":999,"REV_AT_EPOCH":1932,"BSTAR":0.00046781318,"MEAN_MOTION_DOT":9.679e-5,"MEAN_MOTION_DDOT":0},{"OBJECT_NAME":"LEMUR-2-STAS-GORBUK","OBJECT_ID":"2025-276W","EPOCH":"2026-04-05T06:32:59.468928","MEAN_MOTION":15.18601429,"ECCENTRICITY":0.0003919,"INCLINATION":97.4282,"RA_OF_ASC_NODE":170.0515,"ARG_OF_PERICENTER":238.6443,"MEAN_ANOMALY":121.4408,"EPHEMERIS_TYPE":0,"CLASSIFICATION_TYPE":"U","NORAD_CAT_ID":66686,"ELEMENT_SET_NO":999,"REV_AT_EPOCH":1934,"BSTAR":0.00041782,"MEAN_MOTION_DOT":8.581e-5,"MEAN_MOTION_DDOT":0},{"OBJECT_NAME":"LEMUR-2-TEODOR","OBJECT_ID":"2025-276DG","EPOCH":"2026-04-05T04:55:07.109760","MEAN_MOTION":15.20266742,"ECCENTRICITY":0.00021127,"INCLINATION":97.4181,"RA_OF_ASC_NODE":170.1302,"ARG_OF_PERICENTER":83.0962,"MEAN_ANOMALY":277.0514,"EPHEMERIS_TYPE":0,"CLASSIFICATION_TYPE":"U","NORAD_CAT_ID":66768,"ELEMENT_SET_NO":999,"REV_AT_EPOCH":1935,"BSTAR":0.00041384587,"MEAN_MOTION_DOT":8.919e-5,"MEAN_MOTION_DDOT":0},{"OBJECT_NAME":"LEMUR-2-LAILA","OBJECT_ID":"2025-276DQ","EPOCH":"2026-04-05T10:51:31.298112","MEAN_MOTION":15.20482205,"ECCENTRICITY":0.00027794,"INCLINATION":97.4203,"RA_OF_ASC_NODE":170.4486,"ARG_OF_PERICENTER":88.3644,"MEAN_ANOMALY":271.7909,"EPHEMERIS_TYPE":0,"CLASSIFICATION_TYPE":"U","NORAD_CAT_ID":66776,"ELEMENT_SET_NO":999,"REV_AT_EPOCH":1939,"BSTAR":0.00036608684,"MEAN_MOTION_DOT":7.931e-5,"MEAN_MOTION_DDOT":0},{"OBJECT_NAME":"LEMUR-2-CELIJO-SB-PK","OBJECT_ID":"2025-276DW","EPOCH":"2026-04-05T10:24:48.203136","MEAN_MOTION":14.99125978,"ECCENTRICITY":0.00106925,"INCLINATION":97.5301,"RA_OF_ASC_NODE":168.6364,"ARG_OF_PERICENTER":30.9119,"MEAN_ANOMALY":329.2731,"EPHEMERIS_TYPE":0,"CLASSIFICATION_TYPE":"U","NORAD_CAT_ID":66781,"ELEMENT_SET_NO":999,"REV_AT_EPOCH":1172,"BSTAR":0.0008287783,"MEAN_MOTION_DOT":0.00010038,"MEAN_MOTION_DDOT":0},{"OBJECT_NAME":"LEMUR-2-FINNIAN","OBJECT_ID":"2025-276DX","EPOCH":"2026-04-05T10:21:53.523072","MEAN_MOTION":14.99578247,"ECCENTRICITY":0.00060666,"INCLINATION":97.5333,"RA_OF_ASC_NODE":168.7981,"ARG_OF_PERICENTER":27.0913,"MEAN_ANOMALY":333.0626,"EPHEMERIS_TYPE":0,"CLASSIFICATION_TYPE":"U","NORAD_CAT_ID":66782,"ELEMENT_SET_NO":999,"REV_AT_EPOCH":909,"BSTAR":0.00077575431,"MEAN_MOTION_DOT":9.495e-5,"MEAN_MOTION_DDOT":0}]
