LEMUR-2-KREMPEL-BRO1    
1 63357U 25061G   26095.43512918  .00005274  00000+0  29239-3 0  9998
2 63357  97.5568  71.8199 0020209 136.1351 224.1489 15.14045253 56623
LEMUR-2-LANGER2SPACE    
1 63358U 25061H   26095.44712384  .00005159  00000+0  28884-3 0  9996
2 63358  97.5575  71.6750 0017988 143.8099 216.4353 15.13742200 56615
LEMUR-2-BALTO           
1 63395U 25052BH  26095.52718867  .00008732  00000+0  71810-3 0  9995
2 63395  97.6984 350.0192 0000713  90.9094 269.2211 14.99368946 57872
LEMUR-2-KRISH           
1 64561U 25135AK  26095.56271988  .00007352  00000+0  66821-3 0  9998
2 64561  97.7651 211.0208 0001136  95.7978 264.3373 14.95531958 43060
LEMUR-2-HUBBLE-4        
1 64565U 25135AP  26095.56289607  .00002504  00000+0  24629-3 0  9993
2 64565  97.7602 210.3886 0003270 146.9749 213.1676 14.92997724 43039
LEMUR-2-SEJONG-2        
1 64586U 25135BL  26095.55116480  .00005453  00000+0  49012-3 0  9992
2 64586  97.7599 211.1458 0004176 190.4673 169.6461 14.96081170 43082
LEMUR-2-HUBBLE-5        
1 64840U 25135BT  26095.28875270  .00003014  00000+0  28861-3 0  9994
2 64840  97.7624 210.6438 0004894 207.2871 152.8092 14.93914289 43021
LEMUR-2-KARENDARRELL    
1 64841U 25135BU  26095.58662752  .00012762  00000+0  10541-2 0  9992
2 64841  97.7608 211.9859 0008711 111.5551 248.6601 14.99071342 43131
LEMUR-2-LUCILLE-ROSE    
1 65403U 25135BV  26095.29475964  .00011701  00000+0  96580-3 0  9992
2 65403  97.7645 211.6803 0010251 155.5548 204.6162 14.99108450 37711
LEMUR-2-AFFIE-WAUWIE    
1 66295U 25248C   26095.19274116  .00022990  00000+0  91811-3 0  9996
2 66295  45.4002 149.7215 0007892  17.4572 342.6587 15.24807376 23447
LEMUR-2-DEANANDMAEVE    
1 66678U 25276N   26095.14030434  .00009679  00000+0  46781-3 0  9995
2 66678  97.4245 169.8682 0004547 246.7754 113.3002 15.18819782 19326
LEMUR-2-STAS-GORBUK     
1 66686U 25276W   26095.27291052  .00008581  00000+0  41782-3 0  9990
2 66686  97.4282 170.0515 0003919 238.6443 121.4408 15.18601429 19341
LEMUR-2-TEODOR          
1 66768U 25276DG  26095.20494340  .00008919  00000+0  41385-3 0  9993
2 66768  97.4181 170.1302 0002112  83.0962 277.0514 15.20266742 19352
LEMUR-2-LAILA           
1 66776U 25276DQ  26095.45244558  .00007931  00000+0  36609-3 0  9999
2 66776  97.4203 170.4486 0002779  88.3644 271.7909 15.20482205 19393
LEMUR-2-CELIJO-SB-PK    
1 66781U 25276DW  26095.43389124  .00010038  00000+0  82878-3 0  9993
2 66781  97.5301 168.6364 0010692  30.9119 329.2731 14.99125978 11723
LEMUR-2-FINNIAN         
1 66782U 25276DX  26095.43186948  .00009495  00000+0  77575-3 0  9996
2 66782  97.5333 168.7981 0006066  27.0913 333.0626 14.99578247  9098
